GLOBALSTAR M045         
1 25676U 99019A   25265.06128037 -.00000128  00000+0 -30622-3 0  9999
2 25676  51.9994  29.1547 0000876  92.3696  79.8295 12.27065428205283
GLOBALSTAR M019         
1 25677U 99019B   25265.20774662 -.00000115  00000+0 -26008-3 0  9996
2 25677  51.9872 165.9328 0001321 123.3375  44.8443 12.13877530196927
GLOBALSTAR M044         
1 25678U 99019C   25265.02763781  .00000044  00000+0  17822-2 0  9999
2 25678  51.9950 129.9094 0005339 223.9087 284.8211 11.90259520182858
GLOBALSTAR M042         
1 25679U 99019D   25265.08607163 -.00000027  00000+0  61077-3 0  9991
2 25679  51.9997 137.4057 0003397 124.8438  28.0147 12.22087876197103
GLOBALSTAR M025         
1 25770U 99031A   25265.28070473 -.00000073  00000+0 -16953-3 0  9992
2 25770  51.9818 294.3505 0002015 308.8421 134.0074 11.22558529492618
GLOBALSTAR M049         
1 25771U 99031B   25265.24130724 -.00000026  00000+0  13549-2 0  9999
2 25771  51.9912 334.0829 0003060 174.2474 185.8358 11.12122756128229
GLOBALSTAR M047         
1 25772U 99031C   25265.28770679 -.00000050  00000+0  55064-3 0  9999
2 25772  51.9854 321.6700 0016551  70.3655 289.8936 11.31929691482102
GLOBALSTAR M052         
1 25773U 99031D   25265.25029389 -.00000018  00000+0  16230-2 0  9997
2 25773  51.9851  81.3649 0002400 355.8551 175.4453 11.15060946489333
